[{"OBJECT_NAME":"ION SCV-008","OBJECT_ID":"2023-001AU","EPOCH":"2026-03-09T19:46:58.662912","MEAN_MOTION":15.2722664,"ECCENTRICITY":0.00151921,"INCLINATION":97.5676,"RA_OF_ASC_NODE":163.606,"ARG_OF_PERICENTER":8.542,"MEAN_ANOMALY":351.6074,"EPHEMERIS_TYPE":0,"CLASSIFICATION_TYPE":"U","NORAD_CAT_ID":55051,"ELEMENT_SET_NO":999,"REV_AT_EPOCH":17616,"BSTAR":0.00031422806,"MEAN_MOTION_DOT":8.336e-5,"MEAN_MOTION_DDOT":0},{"OBJECT_NAME":"STARLINK-31317","OBJECT_ID":"2024-027A","EPOCH":"2026-03-09T23:24:31.337280","MEAN_MOTION":15.30184171,"ECCENTRICITY":0.00013317,"INCLINATION":53.1625,"RA_OF_ASC_NODE":308.1808,"ARG_OF_PERICENTER":77.5088,"MEAN_ANOMALY":282.6062,"EPHEMERIS_TYPE":0,"CLASSIFICATION_TYPE":"U","NORAD_CAT_ID":58931,"ELEMENT_SET_NO":999,"REV_AT_EPOCH":11721,"BSTAR":3.388817e-5,"MEAN_MOTION_DOT":6.44e-6,"MEAN_MOTION_DDOT":0}]
